#aV2024 12 28  0  0  0.00000000     288 DD+AD WGS84 FIT  NGA
## 2346 518400.00000000   300.00000000 60672 0.0000000000000
+   31     2  3  4  5  6  7  8  9 10 11 12 13 14 15 16 17 18
+         19 20 21 22 23 24 25 26 27 28 29 30 31 32  0  0  0
+          0  0  0  0  0  0  0  0  0  0  0  0  0  0  0  0  0
+          0  0  0  0  0  0  0  0  0  0  0  0  0  0  0  0  0
+          0  0  0  0  0  0  0  0  0  0  0  0  0  0  0  0  0
++         2  2  2  2  2  2  2  2  2  2  2  2  2  2  2  2  2
++         2  2  2  2  2  2  2  2  2  2  2  2  2  2  0  0  0
++         0  0  0  0  0  0  0  0  0  0  0  0  0  0  0  0  0
++         0  0  0  0  0  0  0  0  0  0  0  0  0  0  0  0  0
++         0  0  0  0  0  0  0  0  0  0  0  0  0  0  0  0  0
%c cc cc ccc ccc cccc cccc cccc cccc ccccc ccccc ccccc ccccc
%c cc cc ccc ccc cccc cccc cccc cccc ccccc ccccc ccccc ccccc
%f  0.0000000  0.000000000  0.00000000000  0.000000000000000
%f  0.0000000  0.000000000  0.00000000000  0.000000000000000
%i    0    0    0    0      0      0      0      0         0
%i    0    0    0    0      0      0      0      0         0
/*      NGA, ST. LOUIS,MO.                                  
/*   EPHEMERIS COMPUTED FROM 2 DAYS OF DATA                 
/*   EPOCHA v9 SMOOTHER                                     
/*   G2296 IERS2010 SATIGS SATAPC                           
*  2024 12 28  3 55  0.00000000
P  2  18088.410614  13268.423283 -14045.201385   -281.698477                    
V  2 -18509.427122  -1542.802711 -24109.525410      0.089923                    
P  3  12282.545258  21193.857360  10242.221277    634.268463                    
V  3   1561.743892  13192.867191 -28604.289771      0.080194                    
P  4  11208.778899  10176.027049  21845.903054    502.895653                    
V  4 -20375.645179  18722.850228   1584.747864      0.060294                    
P  5  -5089.010727 -25692.773540   4022.024151   -197.314067                    
V  5   3884.074059   4374.827738  31555.191444     -0.011313                    
P  6  17369.830186  -7666.960645  18699.305286    -76.789913                    
V  6  22234.763697   7599.019358 -17488.092608     -0.278778                    
P  7  25831.393444   7142.906886    -40.371513    -14.372745                    
V  7    -83.666565   2868.786272  31222.078690      0.008372                    
P  8   1636.109823  18254.919931 -19189.427074    448.488231                    
V  8 -17871.861854  16521.715488  14739.767649      0.084623                    
P  9  17747.147841   1406.983632  19640.527860    505.370475                    
V  9 -16610.834323  18880.794381  13524.809160      0.156500                    
P 10 -11839.558643  10200.514150 -21182.803333   -252.436943                    
V 10  -7441.149918 -26421.500749  -8796.528611     -0.157847                    
P 11   4497.668106 -14442.838790  21870.932927   -752.658143                    
V 11  26279.293512   8630.206727    237.317190      0.002480                    
P 12  -9526.444785 -23652.549687   7232.728932   -561.026648                    
V 12    881.930309  -9883.603215 -29920.018341     -0.022850                    
P 13   8575.605440 -19621.692353 -15788.938596    691.531281                    
V 13  16933.488551 -10210.653004  22448.830839      0.013362                    
P 14  14435.737996  -6150.934835 -21366.349347    568.848435                    
V 14   6702.965993  26489.418680  -3325.401493      0.074331                    
P 15  -4423.533128 -18043.311483 -19456.042317    244.801757                    
V 15  15316.960077 -18189.663680  13903.164353      0.045068                    
P 16  -1620.070633  24865.188596   8154.475943    -92.267837                    
V 16  -4831.683976 -10315.231242  29672.579861      0.095080                    
P 17  22232.516645 -12206.716327  -7814.626139    500.249208                    
V 17  -6279.518306   8657.897292 -29625.874243     -0.166421                    
P 18 -25921.349704  -5366.223105  -3336.352838   -659.545534                    
V 18  -3440.167249  -3307.907699  31524.973832      0.008491                    
P 19  19922.432967 -17129.329765   1428.058696    579.193995                    
V 19   3471.880586   1143.260983 -32072.633151      0.046801                    
P 20   1930.610820 -21691.597618  15382.410216    367.537256                    
V 20   9899.751424  16727.519237  22338.276170     -0.003096                    
P 21  12418.878173  15077.140135 -18093.855453     98.781648                    
V 21 -23181.230755  -3087.240263 -17020.197287      0.022433                    
P 22  10901.886568 -14916.743873 -18808.825267    -89.051890                    
V 22   5292.914019  24058.922850 -15389.554831     -0.022583                    
P 23 -15866.774183  -5546.590071 -20581.023338    392.358893                    
V 23  -6529.664340 -25287.793469  11600.020627      0.076158                    
P 24 -15745.681180 -14824.428640 -16143.924848   -469.661860                    
V 24  19638.422289   1283.442666 -20545.676753      0.034849                    
P 25 -15934.347986 -13145.481510  16483.621584    497.565974                    
V 25  -3883.060787 -21279.551112 -20023.484728     -0.004973                    
P 26  -7198.905093  18457.394054  17324.789523    -25.436563                    
V 26  -9828.944958 -20504.665925  17964.977269     -0.146202                    
P 27  -9234.408211  21537.158865 -12376.423693    -33.750305                    
V 27 -12719.720760   9070.515514  26345.409020      0.004116                    
P 28 -18913.695457   7605.796749  17014.471803   -520.239455                    
V 28 -20590.746759  -6854.382208 -19803.458102     -0.102562                    
P 29 -17785.545308  -2577.447408  19554.357613   -552.206481                    
V 29  18287.357312 -16880.365924  14255.581265      0.032551                    
P 30  23923.323533  -2199.216189 -11466.534616   -251.864636                    
V 30  13449.287294   6707.475932  26155.660183      0.082569                    
P 31 -10190.412416  12442.880652  20944.472935   -219.109371                    
V 31 -25811.512007  -8387.102218  -7130.247924      0.007724                    
P 32 -20527.341629  15932.395329  -4715.398073   -551.798150                    
V 32   2429.861857  -6484.813168 -31198.980566      0.064388                    
EOF
